{"type": "FeatureCollection", "features": [ {"type": "Feature", "properties": {"norad_id": 38779, "name": "GSAT-10 (GAGAN/PRN 128)", "group": "gnss", "lat": 0.09779766228515044, "lon": 12.266473142004298, "alt_km": 35791.102900134785, "timestamp": "2025-12-11T13:55:02.406927+00:00", "meta": {"OBJECT_NAME": "GSAT-10 (GAGAN/PRN 128)", "OBJECT_ID": "2012-051B", "EPOCH": "2025-12-11T03:38:04.034976", "MEAN_MOTION": 1.00273319, "ECCENTRICITY": 0.00024675, "INCLINATION": 0.0934, "RA_OF_ASC_NODE": 266.3951, "ARG_OF_PERICENTER": 227.6847, "MEAN_ANOMALY": 83.5472, "EPHEMERIS_TYPE": 0, "CLASSIFICATION_TYPE": "U", "NORAD_CAT_ID": 38779, "ELEMENT_SET_NO": 999, "REV_AT_EPOCH": 4821, "BSTAR": 0, "MEAN_MOTION_DOT": -1.59e-06, "MEAN_MOTION_DDOT": 0}, "tle": {"line1": "1 38779U 12051B   25345.15143559 -.00000159  00000+0  00000+0 0  9999", "line2": "2 38779   0.0934 266.3951 0002467 227.6847  83.5472  1.00273319 48219"}}, "geometry": {"type": "Point", "coordinates": [12.266473142004298, 0.09779766228515044]}}, {"type": "Feature", "properties": {"norad_id": 38833, "name": "GPS BIIF-3  (PRN 24)", "group": "gnss", "lat": 11.311434464283792, "lon": -37.22323914774382, "alt_km": 20268.709886474553, "timestamp": "2025-12-11T13:55:02.406941+00:00", "meta": {"OBJECT_NAME": "GPS BIIF-3  (PRN 24)", "OBJECT_ID": "2012-053A", "EPOCH": "2025-12-09T20:38:00.572640", "MEAN_MOTION": 2.00564945, "ECCENTRICITY": 0.0175755, "INCLINATION": 53.5569, "RA_OF_ASC_NODE": 151.3565, "ARG_OF_PERICENTER": 63.953, "MEAN_ANOMALY": 297.8432, "EPHEMERIS_TYPE": 0, "CLASSIFICATION_TYPE": "U", "NORAD_CAT_ID": 38833, "ELEMENT_SET_NO": 999, "REV_AT_EPOCH": 9564, "BSTAR": 0, "MEAN_MOTION_DOT": 6.8e-07, "MEAN_MOTION_DDOT": 0}, "tle": {"line1": "1 38833U 12053A   25343.85972885  .00000068  00000+0  00000+0 0  9997", "line2": "2 38833  53.5569 151.3565 0175755  63.9530 297.8432  2.00564945 95646"}}, "geometry": {"type": "Point", "coordinates": [-37.22323914774382, 11.311434464283792]}}, {"type": "Feature", "properties": {"norad_id": 38857, "name": "GSAT0103 (GALILEO-FM3)", "group": "gnss", "lat": -48.28861408475243, "lon": -23.37357370159266, "alt_km": 23220.710597045658, "timestamp": "2025-12-11T13:55:02.406955+00:00", "meta": {"OBJECT_NAME": "GSAT0103 (GALILEO-FM3)", "OBJECT_ID": "2012-055A", "EPOCH": "2025-12-10T14:16:18.944544", "MEAN_MOTION": 1.70473311, "ECCENTRICITY": 0.00025926, "INCLINATION": 55.6913, "RA_OF_ASC_NODE": 106.7254, "ARG_OF_PERICENTER": 268.6178, "MEAN_ANOMALY": 91.322, "EPHEMERIS_TYPE": 0, "CLASSIFICATION_TYPE": "U", "NORAD_CAT_ID": 38857, "ELEMENT_SET_NO": 999, "REV_AT_EPOCH": 8179, "BSTAR": 0, "MEAN_MOTION_DOT": 1.1e-07, "MEAN_MOTION_DDOT": 0}, "tle": {"line1": "1 38857U 12055A   25344.59466371  .00000011  00000+0  00000+0 0  9993", "line2": "2 38857  55.6913 106.7254 0002592 268.6178  91.3220  1.70473311 81792"}}, "geometry": {"type": "Point", "coordinates": [-23.37357370159266, -48.28861408475243]}}, {"type": "Feature", "properties": {"norad_id": 38953, "name": "BEIDOU-2 G6 (C02)", "group": "gnss", "lat": -3.481580724131416, "lon": 13.382975252769823, "alt_km": 35755.4305482932, "timestamp": "2025-12-11T13:55:02.406969+00:00", "meta": {"OBJECT_NAME": "BEIDOU-2 G6 (C02)", "OBJECT_ID": "2012-059A", "EPOCH": "2025-12-10T20:47:26.918592", "MEAN_MOTION": 1.0026968, "ECCENTRICITY": 0.0007636, "INCLINATION": 3.9445, "RA_OF_ASC_NODE": 75.5197, "ARG_OF_PERICENTER": 289.1731, "MEAN_ANOMALY": 111.0256, "EPHEMERIS_TYPE": 0, "CLASSIFICATION_TYPE": "U", "NORAD_CAT_ID": 38953, "ELEMENT_SET_NO": 999, "REV_AT_EPOCH": 4802, "BSTAR": 0, "MEAN_MOTION_DOT": -1.7e-06, "MEAN_MOTION_DDOT": 0}, "tle": {"line1": "1 38953U 12059A   25344.86628378 -.00000170  00000+0  00000+0 0  9998", "line2": "2 38953   3.9445  75.5197 0007636 289.1731 111.0256  1.00269680 48024"}}, "geometry": {"type": "Point", "coordinates": [13.382975252769823, -3.481580724131416]}}, {"type": "Feature", "properties": {"norad_id": 38977, "name": "LUCH 5B (SDCM/PRN 125)", "group": "gnss", "lat": -6.645764188625404, "lon": -87.43895074556767, "alt_km": 35759.75990872102, "timestamp": "2025-12-11T13:55:02.406981+00:00", "meta": {"OBJECT_NAME": "LUCH 5B (SDCM/PRN 125)", "OBJECT_ID": "2012-061A", "EPOCH": "2025-12-11T01:06:29.500128", "MEAN_MOTION": 1.0027229, "ECCENTRICITY": 0.00073048, "INCLINATION": 10.0781, "RA_OF_ASC_NODE": 51.7234, "ARG_OF_PERICENTER": 192.3496, "MEAN_ANOMALY": 196.2203, "EPHEMERIS_TYPE": 0, "CLASSIFICATION_TYPE": "U", "NORAD_CAT_ID": 38977, "ELEMENT_SET_NO": 999, "REV_AT_EPOCH": 4772, "BSTAR": 0, "MEAN_MOTION_DOT": -1.35e-06, "MEAN_MOTION_DDOT": 0}, "tle": {"line1": "1 38977U 12061A   25345.04617477 -.00000135  00000+0  00000+0 0  9997", "line2": "2 38977  10.0781  51.7234 0007304 192.3496 196.2203  1.00272290 47729"}}, "geometry": {"type": "Point", "coordinates": [-87.43895074556767, -6.645764188625404]}}, {"type": "Feature", "properties": {"norad_id": 39155, "name": "COSMOS 2485 (747)", "group": "gnss", "lat": -60.60194957537732, "lon": 25.303852439263284, "alt_km": 19102.35320072593, "timestamp": "2025-12-11T13:55:02.406993+00:00", "meta": {"OBJECT_NAME": "COSMOS 2485 (747)", "OBJECT_ID": "2013-019A", "EPOCH": "2025-12-10T17:41:35.437344", "MEAN_MOTION": 2.13102878, "ECCENTRICITY": 0.00245732, "INCLINATION": 65.3124, "RA_OF_ASC_NODE": 79.9346, "ARG_OF_PERICENTER": 229.2052, "MEAN_ANOMALY": 130.5984, "EPHEMERIS_TYPE": 0, "CLASSIFICATION_TYPE": "U", "NORAD_CAT_ID": 39155, "ELEMENT_SET_NO": 999, "REV_AT_EPOCH": 9826, "BSTAR": 0, "MEAN_MOTION_DOT": -2.2e-07, "MEAN_MOTION_DDOT": 0}, "tle": {"line1": "1 39155U 13019A   25344.73721571 -.00000022  00000+0  00000+0 0  9991", "line2": "2 39155  65.3124  79.9346 0024573 229.2052 130.5984  2.13102878 98264"}}, "geometry": {"type": "Point", "coordinates": [25.303852439263284, -60.60194957537732]}}, {"type": "Feature", "properties": {"norad_id": 39166, "name": "GPS BIIF-4  (PRN 27)", "group": "gnss", "lat": -53.604588583648166, "lon": 170.6762274184866, "alt_km": 20496.208824973986, "timestamp": "2025-12-11T13:55:02.407004+00:00", "meta": {"OBJECT_NAME": "GPS BIIF-4  (PRN 27)", "OBJECT_ID": "2013-023A", "EPOCH": "2025-12-10T05:20:05.649504", "MEAN_MOTION": 2.00565116, "ECCENTRICITY": 0.0137742, "INCLINATION": 54.6542, "RA_OF_ASC_NODE": 276.6706, "ARG_OF_PERICENTER": 48.5869, "MEAN_ANOMALY": 312.6037, "EPHEMERIS_TYPE": 0, "CLASSIFICATION_TYPE": "U", "NORAD_CAT_ID": 39166, "ELEMENT_SET_NO": 999, "REV_AT_EPOCH": 9209, "BSTAR": 0, "MEAN_MOTION_DOT": -5.9e-07, "MEAN_MOTION_DDOT": 0}, "tle": {"line1": "1 39166U 13023A   25344.22228761 -.00000059  00000+0  00000+0 0  9995", "line2": "2 39166  54.6542 276.6706 0137742  48.5869 312.6037  2.00565116 92099"}}, "geometry": {"type": "Point", "coordinates": [170.6762274184866, -53.604588583648166]}}, {"type": "Feature", "properties": {"norad_id": 39199, "name": "IRNSS-1A", "group": "gnss", "lat": -34.896727934356846, "lon": -13.203770840670693, "alt_km": 35791.90805213863, "timestamp": "2025-12-11T13:55:02.407015+00:00", "meta": {"OBJECT_NAME": "IRNSS-1A", "OBJECT_ID": "2013-034A", "EPOCH": "2025-12-02T19:49:26.431104", "MEAN_MOTION": 1.00279053, "ECCENTRICITY": 0.00216608, "INCLINATION": 35.2852, "RA_OF_ASC_NODE": 66.6964, "ARG_OF_PERICENTER": 185.4059, "MEAN_ANOMALY": 172.3398, "EPHEMERIS_TYPE": 0, "CLASSIFICATION_TYPE": "U", "NORAD_CAT_ID": 39199, "ELEMENT_SET_NO": 999, "REV_AT_EPOCH": 4539, "BSTAR": 0, "MEAN_MOTION_DOT": 6.5e-07, "MEAN_MOTION_DDOT": 0}, "tle": {"line1": "1 39199U 13034A   25336.82600036  .00000065  00000+0  00000+0 0  9995", "line2": "2 39199  35.2852  66.6964 0021660 185.4059 172.3398  1.00279053 45393"}}, "geometry": {"type": "Point", "coordinates": [-13.203770840670693, -34.896727934356846]}}, {"type": "Feature", "properties": {"norad_id": 39533, "name": "GPS BIIF-5  (PRN 30)", "group": "gnss", "lat": -53.248681309942796, "lon": 57.71866547490915, "alt_km": 20020.654792761343, "timestamp": "2025-12-11T13:55:02.407028+00:00", "meta": {"OBJECT_NAME": "GPS BIIF-5  (PRN 30)", "OBJECT_ID": "2014-008A", "EPOCH": "2025-12-10T17:09:32.568192", "MEAN_MOTION": 2.00574305, "ECCENTRICITY": 0.0079159, "INCLINATION": 53.631, "RA_OF_ASC_NODE": 157.0072, "ARG_OF_PERICENTER": 226.4701, "MEAN_ANOMALY": 132.8778, "EPHEMERIS_TYPE": 0, "CLASSIFICATION_TYPE": "U", "NORAD_CAT_ID": 39533, "ELEMENT_SET_NO": 999, "REV_AT_EPOCH": 8590, "BSTAR": 0, "MEAN_MOTION_DOT": 7.7e-07, "MEAN_MOTION_DDOT": 0}, "tle": {"line1": "1 39533U 14008A   25344.71496028  .00000077  00000+0  00000+0 0  9993", "line2": "2 39533  53.6310 157.0072 0079159 226.4701 132.8778  2.00574305 85902"}}, "geometry": {"type": "Point", "coordinates": [57.71866547490915, -53.248681309942796]}}, {"type": "Feature", "properties": {"norad_id": 39617, "name": "ASTRA 5B (EGNOS/PRN 123)", "group": "gnss", "lat": -0.06542013477048925, "lon": -47.18416698419204, "alt_km": 35773.641452965334, "timestamp": "2025-12-11T13:55:02.407039+00:00", "meta": {"OBJECT_NAME": "ASTRA 5B (EGNOS/PRN 123)", "OBJECT_ID": "2014-011B", "EPOCH": "2025-12-11T05:03:48.322944", "MEAN_MOTION": 1.0027157, "ECCENTRICITY": 0.00044367, "INCLINATION": 0.0586, "RA_OF_ASC_NODE": 34.9891, "ARG_OF_PERICENTER": 229.4464, "MEAN_ANOMALY": 275.1742, "EPHEMERIS_TYPE": 0, "CLASSIFICATION_TYPE": "U", "NORAD_CAT_ID": 39617, "ELEMENT_SET_NO": 999, "REV_AT_EPOCH": 4278, "BSTAR": 0, "MEAN_MOTION_DOT": 1.43e-06, "MEAN_MOTION_DDOT": 0}, "tle": {"line1": "1 39617U 14011B   25345.21097596  .00000143  00000+0  00000+0 0  9997", "line2": "2 39617   0.0586  34.9891 0004436 229.4464 275.1742  1.00271570 42781"}}, "geometry": {"type": "Point", "coordinates": [-47.18416698419204, -0.06542013477048925]}}]}